{
"type": "FeatureCollection",
"name": "origins_wgs84",
"crs": { "type": "name", "properties": { "name": "urn:ogc:def:crs:OGC:1.3:CRS84" } },
"features": [
{ "type": "Feature", "properties": { "name": "Amsterdam Centraal" }, "geometry": { "type": "Point", "coordinates": [ 4.9005805, 52.378901 ] } },
{ "type": "Feature", "properties": { "name": "Amsterdam Zuid" }, "geometry": { "type": "Point", "coordinates": [ 4.873191, 52.3388074 ] } },
{ "type": "Feature", "properties": { "name": "Sloterdijk" }, "geometry": { "type": "Point", "coordinates": [ 4.838877, 52.3890161 ] } },
{ "type": "Feature", "properties": { "name": "Dam Square" }, "geometry": { "type": "Point", "coordinates": [ 4.8923511, 52.3731162 ] } },
{ "type": "Feature", "properties": { "name": "Muiderpoort" }, "geometry": { "type": "Point", "coordinates": [ 4.9312094, 52.3608208 ] } }
]
}
