{"type": "FeatureCollection", "features": [{"properties": {"origin_name": "Amsterdam Centraal", "time_minutes": 15}, "geometry": {"coordinates": [[[4.89258, 52.387644], [4.891581, 52.386814], [4.890763, 52.383719], [4.887653, 52.383829], [4.886455, 52.382901], [4.88675, 52.381901], [4.8859, 52.380221], [4.886992, 52.378901], [4.885542, 52.377901], [4.886671, 52.375901], [4.88658, 52.374274], [4.888253, 52.371901], [4.889581, 52.371322], [4.891882, 52.369202], [4.895581, 52.369999], [4.89658, 52.369315], [4.898995, 52.369316], [4.89958, 52.368763], [4.901714, 52.368767], [4.902654, 52.369828], [4.904581, 52.369685], [4.905804, 52.370678], [4.90758, 52.371183], [4.908581, 52.370637], [4.911395, 52.371087], [4.912986, 52.372901], [4.913142, 52.37534], [4.915584, 52.375898], [4.917413, 52.376901], [4.916777, 52.378098], [4.912581, 52.379486], [4.91173, 52.378751], [4.910581, 52.378761], [4.910321, 52.379642], [4.90358, 52.379825], [4.903438, 52.380758], [4.900533, 52.380853], [4.900426, 52.381747], [4.899525, 52.381846], [4.899389, 52.382709], [4.89651, 52.382831], [4.896082, 52.384402], [4.89258, 52.387644]]], "type": "Polygon"}, "type": "Feature"}, {"properties": {"origin_name": "Amsterdam Centraal", "time_minutes": 10}, "geometry": {"coordinates": [[[4.893581, 52.384089], [4.89258, 52.383947], [4.892301, 52.382901], [4.893892, 52.382213], [4.893905, 52.381577], [4.891449, 52.380901], [4.891019, 52.379901], [4.891713, 52.377901], [4.890741, 52.376901], [4.893374, 52.372901], [4.895957, 52.373278], [4.897581, 52.372857], [4.89858, 52.373198], [4.900136, 52.372456], [4.902909, 52.372572], [4.906991, 52.373491], [4.907257, 52.373901], [4.90629, 52.37461], [4.906581, 52.375124], [4.907846, 52.375167], [4.908581, 52.374413], [4.909793, 52.374688], [4.909868, 52.375901], [4.911576, 52.377901], [4.910001, 52.379322], [4.90358, 52.379779], [4.903358, 52.380679], [4.900507, 52.380827], [4.90033, 52.381651], [4.899486, 52.381807], [4.899213, 52.382533], [4.896433, 52.382753], [4.896019, 52.38334], [4.893581, 52.384089]]], "type": "Polygon"}, "type": "Feature"}, {"properties": {"origin_name": "Amsterdam Centraal", "time_minutes": 5}, "geometry": {"coordinates": [[[4.89958, 52.381566], [4.897045, 52.381436], [4.895401, 52.379901], [4.896584, 52.375904], [4.90058, 52.376469], [4.90158, 52.375976], [4.903495, 52.375986], [4.904609, 52.376901], [4.904264, 52.377901], [4.905719, 52.378901], [4.90358, 52.379589], [4.902581, 52.380651], [4.900414, 52.380735], [4.89958, 52.381566]]], "type": "Polygon"}, "type": "Feature"}, {"properties": {"origin_name": "Amsterdam Zuid", "time_minutes": 15}, "geometry": {"coordinates": [[[4.872191, 52.349827], [4.869318, 52.347681], [4.866037, 52.346807], [4.863679, 52.344807], [4.862628, 52.342807], [4.85985, 52.342148], [4.858923, 52.340807], [4.860191, 52.340124], [4.861191, 52.3398], [4.864191, 52.34013], [4.864619, 52.339236], [4.867268, 52.338731], [4.863533, 52.338465], [4.863191, 52.337614], [4.862191, 52.338502], [4.861191, 52.337522], [4.858223, 52.336807], [4.860054, 52.335807], [4.860233, 52.334807], [4.861191, 52.334081], [4.863191, 52.333553], [4.869191, 52.329836], [4.870303, 52.330696], [4.872191, 52.330932], [4.874191, 52.329945], [4.875191, 52.328928], [4.877294, 52.329705], [4.878191, 52.330545], [4.879191, 52.330361], [4.881638, 52.33136], [4.884191, 52.333492], [4.885229, 52.333769], [4.88627, 52.334807], [4.885938, 52.335807], [4.887191, 52.336673], [4.888314, 52.336685], [4.888674, 52.337807], [4.886916, 52.338533], [4.883103, 52.33872], [4.883191, 52.339236], [4.885191, 52.339738], [4.886845, 52.340807], [4.885771, 52.341807], [4.886191, 52.342894], [4.88425, 52.343866], [4.882352, 52.345807], [4.880713, 52.346807], [4.879191, 52.346876], [4.877191, 52.348081], [4.87619, 52.347808], [4.874038, 52.348655], [4.872191, 52.349827]]], "type": "Polygon"}, "type": "Feature"}, {"properties": {"origin_name": "Amsterdam Zuid", "time_minutes": 10}, "geometry": {"coordinates": [[[4.873191, 52.346041], [4.872191, 52.345987], [4.871028, 52.344971], [4.864986, 52.341807], [4.865693, 52.339309], [4.867479, 52.338807], [4.864405, 52.337807], [4.864355, 52.336807], [4.866429, 52.336045], [4.866099, 52.334807], [4.868191, 52.334058], [4.874191, 52.333441], [4.875191, 52.332731], [4.876191, 52.332607], [4.877883, 52.334116], [4.879191, 52.333947], [4.880476, 52.334807], [4.878939, 52.335555], [4.879506, 52.336492], [4.884261, 52.337807], [4.882431, 52.339047], [4.88068, 52.339296], [4.879191, 52.340531], [4.879191, 52.341273], [4.880867, 52.341807], [4.877191, 52.344181], [4.874742, 52.344807], [4.873191, 52.346041]]], "type": "Polygon"}, "type": "Feature"}, {"properties": {"origin_name": "Amsterdam Zuid", "time_minutes": 5}, "geometry": {"coordinates": [[[4.874191, 52.34221], [4.873191, 52.342578], [4.871864, 52.342135], [4.869203, 52.339807], [4.87233, 52.338946], [4.872191, 52.338527], [4.870191, 52.338331], [4.869343, 52.337807], [4.87003, 52.336646], [4.873191, 52.335488], [4.874828, 52.335807], [4.875844, 52.337155], [4.877191, 52.337152], [4.878371, 52.338807], [4.876015, 52.339807], [4.876268, 52.340807], [4.874191, 52.34221]]], "type": "Polygon"}, "type": "Feature"}, {"properties": {"origin_name": "Sloterdijk", "time_minutes": 15}, "geometry": {"coordinates": [[[4.838877, 52.398441], [4.835877, 52.398783], [4.831243, 52.396016], [4.831178, 52.394715], [4.828497, 52.394397], [4.828081, 52.392812], [4.82374, 52.391016], [4.823114, 52.390016], [4.824477, 52.389016], [4.822602, 52.388016], [4.828324, 52.387463], [4.82835, 52.386543], [4.826014, 52.386016], [4.825875, 52.385016], [4.826877, 52.384177], [4.828104, 52.384243], [4.828575, 52.382714], [4.831137, 52.381277], [4.831979, 52.380118], [4.832877, 52.379864], [4.834039, 52.380179], [4.835877, 52.379189], [4.837877, 52.381541], [4.839085, 52.381224], [4.839877, 52.380152], [4.841877, 52.381362], [4.843877, 52.380736], [4.84644, 52.382453], [4.849515, 52.383378], [4.851335, 52.385016], [4.855625, 52.387016], [4.856118, 52.389016], [4.853877, 52.392278], [4.851866, 52.393005], [4.850877, 52.394001], [4.849877, 52.393551], [4.848928, 52.395016], [4.846877, 52.396113], [4.845524, 52.395369], [4.844273, 52.393016], [4.843807, 52.392946], [4.8436, 52.394739], [4.842518, 52.395016], [4.842972, 52.396016], [4.842578, 52.396717], [4.840231, 52.39737], [4.838877, 52.398441]]], "type": "Polygon"}, "type": "Feature"}, {"properties": {"origin_name": "Sloterdijk", "time_minutes": 10}, "geometry": {"coordinates": [[[4.836877, 52.395135], [4.835877, 52.395146], [4.832877, 52.393735], [4.831877, 52.3926], [4.829865, 52.392016], [4.829974, 52.391016], [4.829237, 52.390016], [4.829733, 52.389016], [4.829015, 52.388016], [4.832061, 52.3872], [4.831877, 52.386561], [4.830369, 52.386016], [4.832944, 52.384016], [4.834877, 52.383311], [4.835877, 52.383502], [4.837877, 52.38289], [4.838877, 52.384303], [4.839877, 52.383821], [4.840877, 52.384534], [4.843435, 52.384574], [4.843877, 52.38427], [4.847877, 52.386629], [4.848619, 52.388274], [4.8508, 52.389016], [4.848877, 52.390545], [4.847877, 52.390547], [4.847205, 52.391016], [4.847904, 52.392016], [4.843727, 52.392867], [4.842877, 52.394567], [4.841877, 52.394175], [4.840584, 52.394309], [4.8397, 52.393839], [4.836877, 52.395135]]], "type": "Polygon"}, "type": "Feature"}, {"properties": {"origin_name": "Sloterdijk", "time_minutes": 5}, "geometry": {"coordinates": [[[4.841877, 52.392275], [4.835604, 52.391289], [4.834667, 52.389226], [4.835877, 52.38649], [4.837877, 52.386216], [4.83878, 52.387113], [4.839877, 52.386795], [4.841071, 52.38721], [4.842877, 52.387071], [4.843564, 52.388329], [4.844631, 52.389016], [4.842465, 52.391016], [4.841877, 52.392275]]], "type": "Polygon"}, "type": "Feature"}, {"properties": {"origin_name": "Dam Square", "time_minutes": 15}, "geometry": {"coordinates": [[[4.899351, 52.381821], [4.896351, 52.381942], [4.892188, 52.381279], [4.889806, 52.379661], [4.887351, 52.379082], [4.886351, 52.379226], [4.884351, 52.378295], [4.883351, 52.378639], [4.879368, 52.376099], [4.876447, 52.371116], [4.877351, 52.369829], [4.881955, 52.367116], [4.882159, 52.365924], [4.888736, 52.365501], [4.889516, 52.364281], [4.892351, 52.362498], [4.896351, 52.363734], [4.897351, 52.36471], [4.898351, 52.364596], [4.899351, 52.365459], [4.901351, 52.365942], [4.902024, 52.367116], [4.904351, 52.367168], [4.905425, 52.368116], [4.905628, 52.370116], [4.9068, 52.371116], [4.906604, 52.374369], [4.905852, 52.375116], [4.90763, 52.375837], [4.907175, 52.377941], [4.904782, 52.379547], [4.902351, 52.379888], [4.901891, 52.380656], [4.90019, 52.380955], [4.899351, 52.381821]]], "type": "Polygon"}, "type": "Feature"}, {"properties": {"origin_name": "Dam Square", "time_minutes": 10}, "geometry": {"coordinates": [[[4.900351, 52.37912], [4.898351, 52.379415], [4.896297, 52.37917], [4.893351, 52.377489], [4.889351, 52.376767], [4.887351, 52.37587], [4.885351, 52.375728], [4.883351, 52.374371], [4.881938, 52.372116], [4.883536, 52.371301], [4.887018, 52.367783], [4.890351, 52.366764], [4.894201, 52.366266], [4.897057, 52.368411], [4.900561, 52.369116], [4.90211, 52.372116], [4.901599, 52.375116], [4.902593, 52.377116], [4.900351, 52.37912]]], "type": "Polygon"}, "type": "Feature"}, {"properties": {"origin_name": "Dam Square", "time_minutes": 5}, "geometry": {"coordinates": [[[4.896351, 52.37637], [4.89559, 52.375877], [4.894351, 52.375883], [4.893351, 52.374767], [4.892866, 52.375601], [4.893351, 52.376022], [4.893752, 52.375715], [4.893582, 52.376116], [4.892289, 52.376178], [4.887877, 52.372116], [4.89235, 52.369115], [4.894351, 52.370445], [4.897526, 52.371116], [4.897129, 52.371894], [4.89761, 52.374375], [4.897174, 52.376116], [4.896351, 52.37637]]], "type": "Polygon"}, "type": "Feature"}, {"properties": {"origin_name": "Muiderpoort", "time_minutes": 15}, "geometry": {"coordinates": [[[4.935209, 52.369973], [4.934209, 52.370405], [4.933406, 52.369624], [4.929209, 52.367941], [4.926209, 52.369261], [4.923209, 52.368318], [4.921817, 52.366821], [4.921209, 52.364767], [4.917955, 52.364075], [4.918094, 52.362821], [4.916186, 52.360844], [4.917293, 52.358821], [4.916061, 52.354672], [4.921209, 52.353295], [4.922816, 52.352427], [4.926209, 52.351812], [4.933209, 52.351839], [4.935209, 52.351151], [4.936209, 52.351621], [4.937538, 52.351492], [4.938362, 52.351973], [4.944674, 52.352356], [4.945578, 52.353821], [4.944606, 52.355217], [4.942079, 52.355691], [4.942024, 52.356821], [4.942358, 52.356969], [4.943209, 52.356138], [4.947277, 52.356753], [4.948301, 52.357821], [4.948138, 52.358749], [4.947209, 52.358909], [4.94683, 52.359442], [4.946953, 52.361821], [4.948625, 52.362236], [4.949209, 52.361756], [4.949209, 52.363353], [4.944936, 52.365547], [4.943209, 52.365766], [4.939454, 52.368066], [4.938209, 52.367232], [4.936054, 52.367821], [4.936569, 52.368821], [4.935209, 52.369973]]], "type": "Polygon"}, "type": "Feature"}, {"properties": {"origin_name": "Muiderpoort", "time_minutes": 10}, "geometry": {"coordinates": [[[4.932209, 52.367045], [4.929209, 52.366252], [4.926209, 52.366171], [4.925209, 52.363197], [4.923209, 52.363426], [4.922088, 52.361821], [4.923429, 52.359821], [4.921434, 52.356821], [4.922526, 52.356137], [4.925209, 52.35577], [4.926209, 52.355071], [4.928019, 52.354631], [4.931209, 52.355142], [4.933209, 52.354126], [4.935809, 52.354222], [4.93709, 52.35494], [4.940221, 52.354809], [4.94062, 52.356821], [4.941747, 52.357821], [4.94266, 52.360821], [4.943866, 52.361821], [4.940325, 52.363936], [4.93512, 52.365731], [4.934093, 52.366704], [4.932209, 52.367045]]], "type": "Polygon"}, "type": "Feature"}, {"properties": {"origin_name": "Muiderpoort", "time_minutes": 5}, "geometry": {"coordinates": [[[4.931209, 52.364046], [4.930209, 52.363737], [4.929209, 52.36258], [4.927209, 52.362013], [4.925488, 52.359821], [4.92747, 52.357821], [4.932371, 52.356983], [4.936049, 52.357821], [4.936314, 52.359716], [4.938198, 52.360821], [4.937549, 52.361821], [4.936209, 52.362498], [4.934209, 52.362845], [4.931209, 52.364046]]], "type": "Polygon"}, "type": "Feature"}]}